      2.10          N: GNSS NAV DATA                        RINEX VERSION / TYPE
fic2rin                                 07/21/2023 00:17:49 PGM / RUN BY / DATE
                                                            END OF HEADER
9  23  7 20  1 59 44.0 -.107953324914D-03  .943600753089D-11  .000000000000D+00
     .140000000000D+02 -.887812500000D+02  .448268672190D-08 -.187358521821D+01
    -.438094139099D-05  .250967580359D-02  .106766819954D-04  .515358410263D+04
     .352784000000D+06  .558793544769D-08 -.283755931336D+01  .465661287308D-07
     .956817022995D+00  .174093750000D+03  .193418910269D+01 -.786139888739D-08
     .213937482783D-09  .100000000000D+01  .227100000000D+04  .000000000000D+00
     .240000000000D+01  .000000000000D+00  .931322574615D-09  .140000000000D+02
     .345600000000D+06  .400000000000D+01
26 23  7 20  3 59 44.0  .235915184021D-03 -.125055521494D-11  .000000000000D+00
     .100000000000D+01 -.185000000000D+02  .565559272099D-08  .519241012792D+00
    -.795349478722D-06  .797747541219D-02  .523962080479D-05  .515371490479D+04
     .359984000000D+06  .223517417908D-07 -.790235360543D+00  .316649675369D-07
     .933235531109D+00  .259218750000D+03  .462285862507D+00 -.865714631918D-08
    -.500735143343D-09  .100000000000D+01  .227100000000D+04  .000000000000D+00
     .240000000000D+01  .000000000000D+00  .698491930962D-08  .100000000000D+01
     .355410000000D+06  .400000000000D+01
14 23  7 20  5 29 36.0  .127888284624D-03  .119371179608D-10  .000000000000D+00
     .155000000000D+03 -.178750000000D+02  .523914680292D-08  .214035764582D+01
    -.851228833199D-06  .341045798268D-02  .634789466858D-05  .515367279053D+04
     .365376000000D+06 -.875443220139D-07 -.690175460715D+00  .121071934700D-06
     .948152396205D+00  .252218750000D+03 -.296814831369D+01 -.827641617453D-08
    -.411445709794D-09  .100000000000D+01  .227100000000D+04  .000000000000D+00
     .240000000000D+01  .000000000000D+00 -.791624188423D-08  .155000000000D+03
     .358200000000D+06  .400000000000D+01
7  23  7 20  5 59 44.0  .119978561997D-03 -.110276232590D-10  .000000000000D+00
     .400000000000D+01  .281250000000D+02  .496663545173D-08 -.311933604176D+01
     .121444463730D-05  .174896735698D-01  .737234950066D-05  .515373308563D+04
     .367184000000D+06  .689178705215D-07 -.176595049534D+01 -.273808836937D-06
     .949953132790D+00  .232562500000D+03 -.218076820205D+01 -.788497129785D-08
     .557523223080D-09  .100000000000D+01  .227100000000D+04  .000000000000D+00
     .240000000000D+01  .000000000000D+00 -.111758708954D-07  .400000000000D+01
     .360000000000D+06  .400000000000D+01
26 23  7 20  5 59 44.0  .235906336457D-03 -.125055521494D-11  .000000000000D+00
     .310000000000D+02 -.175625000000D+02  .573881047306D-08  .156943887926D+01
    -.709667801857D-06  .797740719281D-02  .547803938389D-05  .515371439552D+04
     .367184000000D+06 -.428408384323D-07 -.790298494236D+00  .223517417908D-06
     .933232375594D+00  .261187500000D+03  .462252772763D+00 -.864071706341D-08
    -.342871424828D-09  .100000000000D+01  .227100000000D+04  .000000000000D+00
     .240000000000D+01  .000000000000D+00  .698491930962D-08  .310000000000D+02
     .360000000000D+06  .400000000000D+01
2  23  7 20  6  0  0.0 -.574337318540D-03  .386535248253D-11  .000000000000D+00
     .510000000000D+02  .916875000000D+02  .427232081645D-08  .218767490601D+00
     .492297112942D-05  .159454595996D-01  .548176467419D-05  .515355152130D+04
     .367200000000D+06 -.242143869400D-06  .129190697590D+01 -.216066837311D-06
     .967363149690D+00  .284000000000D+03 -.136711871330D+01 -.831784647169D-08
     .535736601294D-10  .100000000000D+01  .227100000000D+04  .000000000000D+00
     .240000000000D+01  .000000000000D+00 -.176951289177D-07  .510000000000D+02
     .360000000000D+06  .400000000000D+01
1  23  7 20  6  0  0.0  .172161497176D-03 -.181898940355D-11  .000000000000D+00
     .105000000000D+03  .950625000000D+02  .373265548008D-08 -.245510388834D+01
     .502541661263D-05  .129205398262D-01  .392459332943D-05  .515364059448D+04
     .367200000000D+06  .670552253723D-07  .139173539381D+01 -.707805156708D-07
     .989927566799D+00  .320437500000D+03  .986890164119D+00 -.765103298195D-08
     .244295890190D-09  .100000000000D+01  .227100000000D+04  .000000000000D+00
     .340000000000D+01  .630000000000D+02  .465661287308D-08  .105000000000D+03
     .360000000000D+06  .400000000000D+01
5  23  7 20  6  0  0.0 -.135575421154D-03 -.147792889038D-11  .000000000000D+00
     .560000000000D+02 -.645000000000D+02  .440768359771D-08  .116052192577D+00
    -.322423875332D-05  .607035099529D-02  .231340527534D-05  .515370041084D+04
     .367200000000D+06 -.163912773132D-06  .237501792880D+01  .121071934700D-06
     .966822619014D+00  .338593750000D+03  .118549699488D+01 -.834141888215D-08
    -.118576367753D-09  .100000000000D+01  .227100000000D+04  .000000000000D+00
     .240000000000D+01  .000000000000D+00 -.111758708954D-07  .560000000000D+02
     .360000000000D+06  .400000000000D+01
6  23  7 20  6  0  0.0  .576181802899D-03 -.386535248253D-11  .000000000000D+00
     .300000000000D+02  .101375000000D+03  .385766068705D-08 -.225400164118D+01
     .517442822456D-05  .269236625172D-02  .411830842495D-05  .515370687103D+04
     .367200000000D+06  .316649675369D-07  .138339815785D+01  .484287738800D-07
     .989122117752D+00  .317406250000D+03 -.761403246473D+00 -.795783147562D-08
     .179650340301D-09  .100000000000D+01  .227100000000D+04  .000000000000D+00
     .240000000000D+01  .000000000000D+00  .372529029846D-08  .300000000000D+02
     .360000000000D+06  .400000000000D+01
3  23  7 20  6  0  0.0 -.225000549108D-03  .162572177942D-10  .000000000000D+00
     .880000000000D+02 -.767500000000D+02  .399659504565D-08  .264862930241D+01
    -.397674739361D-05  .505526980851D-02  .278092920780D-05  .515363497925D+04
     .367200000000D+06  .633299350739D-07  .242229437065D+01 -.204890966415D-07
     .979834703328D+00  .334875000000D+03  .106751728777D+01 -.798283251702D-08
    -.120004998690D-09  .100000000000D+01  .227100000000D+04  .000000000000D+00
     .240000000000D+01  .000000000000D+00  .186264514923D-08  .880000000000D+02
     .360000000000D+06  .400000000000D+01
15 23  7 20  6  0  0.0  .596963800490D-04  .352429196937D-11  .000000000000D+00
     .400000000000D+02 -.969687500000D+02  .486663128616D-08 -.124441790622D+01
    -.462122261524D-05  .151422286872D-01  .935047864914D-05  .515375900459D+04
     .367200000000D+06  .171363353729D-06 -.295738010725D+01  .350177288055D-06
     .933259005092D+00  .180000000000D+03  .121580055877D+01 -.822462830307D-08
     .106075847056D-09  .100000000000D+01  .227100000000D+04  .000000000000D+00
     .240000000000D+01  .000000000000D+00 -.107102096081D-07  .400000000000D+02
     .360000000000D+06  .400000000000D+01
8  23  7 20  6  0  0.0 -.133098103106D-03 -.193267624127D-11  .000000000000D+00
     .130000000000D+03  .438437500000D+02  .437732519031D-08 -.272740511640D+00
     .214762985706D-05  .849918823224D-02  .101346522570D-04  .515373005295D+04
     .367200000000D+06  .819563865662D-07  .298298146915D+00  .109896063805D-06
     .958247749562D+00  .183437500000D+03  .272235652759D+00 -.797783230874D-08
    -.466090843126D-09  .100000000000D+01  .227100000000D+04  .000000000000D+00
     .240000000000D+01  .000000000000D+00  .512227416039D-08  .130000000000D+03
     .360000000000D+06  .400000000000D+01
4  23  7 20  6  0  0.0  .100899487734D-03  .109139364213D-10  .000000000000D+00
     .118000000000D+03 -.667500000000D+02  .416481633846D-08 -.684828474655D+00
    -.348314642906D-05  .243854895234D-02  .104364007711D-04  .515364995193D+04
     .367200000000D+06  .596046447754D-07 -.278058616040D+01 -.186264514923D-08
     .963463697662D+00  .175781250000D+03 -.300355042065D+01 -.779996775711D-08
     .264296723305D-09  .100000000000D+01  .227100000000D+04  .000000000000D+00
     .240000000000D+01  .000000000000D+00 -.465661287308D-08  .630000000000D+03
     .360000000000D+06  .400000000000D+01
21 23  7 20  6  0  0.0  .151938293129D-03 -.454747350886D-12  .000000000000D+00
     .370000000000D+02  .845625000000D+02  .442625579989D-08 -.288163209920D+00
     .446476042271D-05  .247020929819D-01  .528804957867D-05  .515359709549D+04
     .367200000000D+06 -.838190317154D-07  .128656596293D+01 -.519677996635D-06
     .961664842389D+00  .284812500000D+03 -.733392939800D+00 -.844963767561D-08
     .152506352502D-09  .100000000000D+01  .227100000000D+04  .000000000000D+00
     .240000000000D+01  .000000000000D+00 -.102445483208D-07  .370000000000D+02
     .360000000000D+06  .400000000000D+01
20 23  7 20  6  0  0.0  .421720091254D-03 -.204636307899D-11  .000000000000D+00
     .260000000000D+02 -.487812500000D+02  .483448709008D-08 -.160163198032D+01
    -.245869159698D-05  .403067865409D-02  .138767063618D-05  .515358488655D+04
     .367200000000D+06 -.614672899246D-07  .225162144859D+01 -.115483999252D-06
     .949252855849D+00  .347218750000D+03 -.287579154945D+01 -.847713882114D-08
    -.525021869268D-10  .100000000000D+01  .227100000000D+04  .000000000000D+00
     .240000000000D+01  .000000000000D+00 -.838190317154D-08  .260000000000D+02
     .360000000000D+06  .400000000000D+01
13 23  7 20  6  0  0.0  .549430958927D-03  .488853402203D-11  .000000000000D+00
     .220000000000D+02 -.712500000000D+02  .409981363084D-08 -.635290196147D+00
    -.350736081600D-05  .721458392218D-02  .111162662506D-04  .515367550659D+04
     .367200000000D+06  .242143869400D-07 -.267663218770D+01  .119209289551D-06
     .970347129527D+00  .172031250000D+03  .914345791589D+00 -.780603943859D-08
     .317156067966D-09  .100000000000D+01  .227100000000D+04  .000000000000D+00
     .240000000000D+01  .000000000000D+00 -.111758708954D-07  .220000000000D+02
     .360000000000D+06  .400000000000D+01
